HULIANWANG JISHU SHIYAN*
1 68833U 26091C   26114.64640345  .00001898  00000+0  10235-3 0  9991
2 68833  54.9979 255.6461 0008534 284.9072  75.1002 15.19764377    65
