{
  "norad_id": 68833,
  "name": "HULIANWANG JISHU SHIYAN OBJECT C",
  "history": [
    {
      "epoch": "2026-04-24T15:30:49.258080Z",
      "apogee_km": 512.4282016150964,
      "perigee_km": 500.6760372881927,
      "latitude_deg": -2.393605552619562e-05,
      "longitude_deg": 170.2645492664494,
      "height_km": 506.1362416322785,
      "semi_major_axis_km": 6884.689119451644,
      "eccentricity": 0.0008535,
      "inclination_deg": 54.9979,
      "raan_deg": 255.6461,
      "arg_perigee_deg": 284.9072,
      "mean_anomaly_deg": 75.1002,
      "mean_motion_rev_day": 15.19764377
    }
  ]
}